STAR ONE C4             
1 40733U 15034B   21113.69316932 -.00000267  00000-0  00000-0 0  9993
2 40733   0.0544  54.2003 0002910 336.0910   1.1968  1.00273006 21164
WGS F7 (USA 263)        
1 40746U 15036A   21113.75612120  .00000015  00000-0  00000-0 0  9994
2 40746   0.0104 240.5316 0000218 289.7449 128.9388  1.00269981 21023
BEIDOU 18               
1 40748U 15037A   21113.78305291 -.00000078  00000-0  00000-0 0  9998
2 40748  55.9427   5.8894 0005588   9.7697 304.5784  1.86233425 39091
BEIDOU 19               
1 40749U 15037B   21113.36400737 -.00000078  00000-0  00000-0 0  9994
2 40749  55.9454   5.8906 0006137 334.3429 195.4067  1.86232303 39081
INTELSAT 34 (IS-34)     
1 40874U 15039A   21113.35128807 -.00000287  00000-0  00000-0 0  9991
2 40874   0.0177 239.9037 0000379 322.7889  79.8874  1.00267573 20771
EUTELSAT 8 WEST B       
1 40875U 15039B   21113.71965660 -.00000067  00000-0  00000-0 0  9994
2 40875   0.0681  19.8688 0005290  31.9356  51.2362  1.00271971 20801
YAOGAN 27               
1 40878U 15040A   21113.87351139 -.00000021  00000-0  58662-4 0  9997
2 40878 100.1846 157.3617 0007919 225.8266 134.2182 13.15968616271845
GSAT-6                  
1 40880U 15041A   21113.73771442 -.00000162  00000-0  00000-0 0  9994
2 40880   0.1015  97.9904 0002700 290.6634 171.4090  1.00271007 20772
INMARSAT 5-F3           
1 40882U 15042A   21113.68528566  .00000048  00000-0  00000-0 0  9990
2 40882   0.0184 232.7127 0000032  40.6135   4.9113  1.00268567 20718
MUOS-4                  
1 40887U 15044A   21113.73614418 -.00000099  00000-0  00000-0 0  9992
2 40887   2.6929 352.3585 0057817   2.4597 197.2072  1.00271310 20705
GSAT0205 (GALILEO 9)    
1 40889U 15045A   21111.29934558  .00000014  00000-0  00000-0 0  9990
2 40889  55.9178 273.6143 0004954  27.4323 332.5668  1.70475355 34912
GSAT0206 (GALILEO 10)   
1 40890U 15045B   21112.69198942  .00000008  00000-0  00000-0 0  9999
2 40890  55.9171 273.5725 0003051  25.7275 334.2562  1.70475413 34968
TJS-1                   
1 40892U 15046A   21113.89569866 -.00000158  00000-0  00000-0 0  9999
2 40892   0.0659 294.9311 0000825  76.1138 318.5677  1.00274783 20691
GAOFEN 9-01             
1 40894U 15047A   21113.78765885  .00000159  00000-0  30024-4 0  9992
2 40894  97.8578 191.3677 0034524 125.1633 235.2817 14.76321882302267
EXPRESS-AM8             
1 40895U 15048A   21113.93382074 -.00000113  00000-0  00000-0 0  9994
2 40895   0.0113 295.1438 0000300 154.7256  84.4904  1.00271698 20520
2015-049A               
1 40899U 15049A   21113.91812288  .00001328  00000-0  70164-4 0  9992
2 40899  97.4762 118.1542 0015779  32.2561  30.1144 15.17145950309482
NUDT-PHONESAT           
1 40900U 15049B   21113.83163177  .00005476  00000-0  21507-3 0  9996
2 40900  97.4238 128.3142 0011331 340.9322 103.9171 15.26062845310499
ZDPS 2A                 
1 40901U 15049C   21113.86169459  .00002937  00000-0  14202-3 0  9992
2 40901  97.4643 121.6672 0013709  19.8268  64.3286 15.19326960309685
ZDPS 2B                 
1 40902U 15049D   21113.90431066  .00002927  00000-0  14144-3 0  9998
2 40902  97.4676 119.0238 0013712  16.7441  46.7948 15.19355177309663
XW-2A                   
1 40903U 15049E   21113.90928448  .00004654  00000-0  10067-3 0  9993
2 40903  97.2422 168.5528 0011513 206.0847 271.4912 15.44922616314371
KAITUO 1A               
1 40904U 15049F   21113.89681557  .00000862  00000-0  48095-4 0  9999
2 40904  97.4869 116.4549 0015553  32.6674  29.0482 15.16111435309273
2015-049G               
1 40905U 15049G   21113.89085208  .00000732  00000-0  42732-4 0  9999
2 40905  97.5006 113.5519 0016657  31.2570  35.6513 15.14930254309071
XW-2C                   
1 40906U 15049H   21113.92868631  .00001681  00000-0  89155-4 0  9997
2 40906  97.4868 116.9678 0015286  23.4874  40.0684 15.16642760309306
XW-2D                   
1 40907U 15049J   21113.87211531  .00001852  00000-0  97095-4 0  9995
2 40907  97.4862 116.6880 0014574  20.6273  63.5891 15.16949905309327
LILACSAT-2              
1 40908U 15049K   21113.95996492  .00000744  00000-0  44021-4 0  9991
2 40908  97.5049 114.6979 0016943  33.0699 357.1408 15.14380239308989
XW-2F                   
1 40910U 15049M   21113.84048791  .00002434  00000-0  11978-3 0  9994
2 40910  97.4736 119.6711 0014623   7.6919 113.8762 15.18870364309436
XW-2B                   
1 40911U 15049N   21113.87194428  .00001881  00000-0  98781-4 0  9990
2 40911  97.4866 117.3764 0014556  21.6249  62.6763 15.16868242309219
KAITUO 1B               
1 40912U 15049P   21113.86239763  .00002831  00000-0  12911-3 0  9998
2 40912  97.4473 124.0522 0013824 340.7815 139.2609 15.21387309309892
COSMOS 2507             
1 40920U 15050A   21113.75404938  .00000015  00000-0  38103-4 0  9999
2 40920  82.4946 170.3181 0010635 124.4981 235.7100 12.42880133253285
COSMOS 2508             
1 40921U 15050B   21113.77921513  .00000008  00000-0 -16972-4 0  9998
2 40921  82.4896 169.5318 0014760 158.0357 202.1355 12.42880093253279
COSMOS 2509             
1 40922U 15050C   21113.72618972  .00000008  00000-0 -13535-4 0  9998
2 40922  82.4905 169.6344 0016145 171.3327 188.8032 12.42886792253279
PUJIANG 1 (PJ-1)        
1 40925U 15051A   21113.87347962  .00002144  00000-0  66259-4 0  9999
2 40925  97.1276 126.9631 0013082 174.6727 282.5655 15.34511474312071
TIANWANG 1A (TW-1A)     
1 40928U 15051D   21113.89581399  .00007280  00000-0  15428-3 0  9995
2 40928  97.0821 140.1175 0011265 125.8630 356.3251 15.45306826313261
ASTROSAT                
1 40930U 15052A   21113.03950974  .00000816  00000-0  25412-4 0  9997
2 40930   5.9971 295.5481 0008855 324.6110  35.3430 14.76392691300971
LAPAN-A2                
1 40931U 15052B   21112.14754832  .00000481  00000-0 -22197-4 0  9990
2 40931   5.9963 293.9413 0013182 329.8562  30.1221 14.76669011300960
LEMUR-2-JOEL            
1 40932U 15052C   21113.05717300  .00001055  00000-0  54681-4 0  9991
2 40932   6.0080 263.3660 0013272  28.4592 331.6259 14.78153146301244
LEMUR-2-CHRIS           
1 40933U 15052D   21113.05165625  .00001040  00000-0  52338-4 0  9990
2 40933   6.0061 259.8554 0013876  37.2840 322.8250 14.78289789301268
LEMUR-2-PETER           
1 40935U 15052F   21113.05673065  .00001016  00000-0  51206-4 0  9990
2 40935   6.0044 280.1634 0010604 348.2487  11.7394 14.77449556301076
EXACTVIEW 9             
1 40936U 15052G   21113.05340176  .00000899  00000-0  36302-4 0  9993
2 40936   6.0045 292.5046 0010823 322.7746  37.1632 14.76685711300980
BEIDOU 20               
1 40938U 15053A   21113.26262632 -.00000117  00000-0  00000-0 0  9995
2 40938  52.1503 280.6881 0045039 189.5493 288.9526  1.00294804 20498
SKY MUSTER 1 (NBN1A)    
1 40940U 15054A   21113.74922958 -.00000281  00000-0  00000-0 0  9998
2 40940   0.0130 261.4637 0001715 123.8931 236.6159  1.00271882 20400
ARSAT 2                 
1 40941U 15054B   21113.56149792 -.00000227  00000-0  00000-0 0  9996
2 40941   0.0172 254.1567 0001732 131.2824 307.5163  1.00272895 20465
MORELOS 3               
1 40946U 15056A   21113.69845828 -.00000052  00000-0  00000-0 0  9996
2 40946   4.3359 330.2854 0001495 348.0908  31.9020  1.00271539 20437
LINGQIAO VIDEO A        
1 40959U 15057B   21113.84618437  .00000058  00000-0  16413-4 0  9996
2 40959  97.8098 172.9792 0016704 229.9703 130.0026 14.73348050298249
LINGQIAO VIDEO B        
1 40960U 15057C   21113.82489678  .00000075  00000-0  19076-4 0  9996
2 40960  97.8119 173.5733 0016837 230.7806 129.1892 14.73467637298263
JILIN 1                 
1 40961U 15057D   21113.80699199  .00000136  00000-0  28212-4 0  9996
2 40961  97.8167 174.8235 0016974 229.4018 130.5707 14.73807470298310
AEROCUBE 5C             
1 40965U 15058B   21113.76816654  .00000088  00000-0  28509-4 0  9998
2 40965  64.7763 283.8703 0200027 327.4500  31.4396 14.74734165 87061
AEROCUBE 7              
1 40966U 15058C   21113.74892319  .00000160  00000-0  36080-4 0  9993
2 40966  64.7764 281.9427 0198916 327.1186  31.7667 14.75082516 87077
APSTAR 9                
1 40982U 15059A   21113.89308159 -.00000269  00000-0  00000-0 0  9992
2 40982   0.0219 262.8438 0002783 203.7277 209.0613  1.00268807 20294
TURKSAT 4B              
1 40984U 15060A   21113.73117174  .00000113  00000-0  00000-0 0  9991
2 40984   0.0185 129.9578 0002295 257.4841 137.7479  1.00270979 20253
TIANHUI 1-03            
1 40988U 15061A   21113.89921881  .00001463  00000-0  64334-4 0  9994
2 40988  97.3511 236.6259 0010379  89.8560  25.3742 15.23416619305465
NAVSTAR 75 (USA 265)    
1 41019U 15062A   21113.13023227  .00000067  00000-0  00000-0 0  9990
2 41019  55.5154 104.4118 0067211 214.8587 144.7164  2.00563693 40109
CHINASAT 2C (ZX 2C)     
1 41021U 15063A   21113.88540481 -.00000326  00000-0  00000+0 0  9990
2 41021   0.0273 308.8522 0002621 107.6011 217.8665  1.00272721 20152
YAOGAN 28               
1 41026U 15064A   21113.88454531  .00001795  00000-0  78165-4 0  9998
2 41026  97.4943 250.4697 0002637  79.3092  37.4660 15.23536412304355
GSAT-15                 
1 41028U 15065A   21113.73989532 -.00000260  00000-0  00000-0 0  9995
2 41028   0.0787 273.8421 0004485 122.3379 175.6830  1.00272871 19956
BADR-7 (ARABSAT-6B)     
1 41029U 15065B   21113.72637376  .00000143  00000-0  00000-0 0  9990
2 41029   0.0302 244.8368 0002428   6.7921 247.8404  1.00272706 19913
COSMOS 2510             
1 41032U 15066A   21113.88495307 -.00000392  00000-0  00000-0 0  9995
2 41032  62.6843 213.2269 6786288 271.1035  97.6983  2.00257796 39800
LAOSAT 1                
1 41034U 15067A   21113.74687420 -.00000345  00000-0  00000-0 0  9990
2 41034   0.0558  58.1478 0002326 306.5720 244.6749  1.00272814 20004
TELSTAR 12V             
1 41036U 15068A   21113.64646567 -.00000121  00000-0  00000-0 0  9991
2 41036   0.0152 262.9596 0002071 131.0051  35.6768  1.00271000 19763
